{
 "type": "FeatureCollection",
 "_meta": {
  "dataType": "SAMPLE",
  "sampleLabel": "示例数据",
  "description": "虚拟林地演示边界（惠州象头山南麓附近），非真实权属边界"
 },
 "features": [
  {
   "type": "Feature",
   "properties": {
    "name": "示例林地A区（虚拟）",
    "forestType": "亚热带常绿阔叶林",
    "year": 2026
   },
   "geometry": {
    "type": "Polygon",
    "coordinates": [
     [
      [
       114.336,
       23.235
      ],
      [
       114.33904,
       23.24533
      ],
      [
       114.327,
       23.24825
      ],
      [
       114.318,
       23.24494
      ],
      [
       114.309,
       23.24825
      ],
      [
       114.29696,
       23.24533
      ],
      [
       114.3,
       23.235
      ],
      [
       114.30787,
       23.23003
      ],
      [
       114.309,
       23.22175
      ],
      [
       114.318,
       23.21434
      ],
      [
       114.327,
       23.22175
      ],
      [
       114.32813,
       23.23003
      ],
      [
       114.336,
       23.235
      ]
     ]
    ]
   }
  }
 ]
}